start=new Date('2021-08-26T00:00:00.000Z').valueOf();
sats=[{"TIME_SYSTEM":"UTC","MEAN_ELEMENT_THEORY":"SGP4","OBJECT_TYPE":"PAYLOAD","MEAN_MOTION":"15.06392902","APOAPSIS":"548.591","SITE":"AFETR","TLE_LINE2":"2 48122  53.0563  34.2442 0001958 121.4168 238.7013 15.06392902 22911","RCS_SIZE":"LARGE","ARG_OF_PERICENTER":"121.4168","INCLINATION":"53.0563","ELEMENT_SET_NO":"999","GP_ID":"183447033","TLE_LINE1":"1 48122U 21027AG  21237.89549858  .00000734  00000-0  68170-4 0  9990","MEAN_ANOMALY":"238.7013","LAUNCH_DATE":"2021-04-07","EPOCH":"2021-08-25T21:29:31.077312","CLASSIFICATION_TYPE":"U","REF_FRAME":"TEME","REV_AT_EPOCH":"2291","OBJECT_ID":"2021-027AG","RA_OF_ASC_NODE":"34.2442","FILE":"3103208","PERIOD":"95.593","OBJECT_NAME":"STARLINK-2463","CENTER_NAME":"EARTH","COUNTRY_CODE":"US","MEAN_MOTION_DOT":"0.00000734","NORAD_CAT_ID":"48122","PERIAPSIS":"545.879","EPHEMERIS_TYPE":"0","DECAY_DATE":null,"SEMIMAJOR_AXIS":"6925.370","ECCENTRICITY":"0.00019580","MEAN_MOTION_DDOT":"0.0000000000000","BSTAR":"0.00006817000000"},{"DECAY_DATE":null,"SEMIMAJOR_AXIS":"6925.361","EPHEMERIS_TYPE":"0","PERIAPSIS":"546.009","BSTAR":"-0.00001420100000","ECCENTRICITY":"0.00017570","MEAN_MOTION_DDOT":"0.0000000000000","RA_OF_ASC_NODE":"29.5095","OBJECT_ID":"2021-027AH","REF_FRAME":"TEME","REV_AT_EPOCH":"2297","MEAN_MOTION_DOT":"-0.00000493","COUNTRY_CODE":"US","NORAD_CAT_ID":"48123","PERIOD":"95.592","FILE":"3103208","OBJECT_NAME":"STARLINK-2464","CENTER_NAME":"EARTH","LAUNCH_DATE":"2021-04-07","MEAN_ANOMALY":"234.0687","TLE_LINE1":"1 48123U 21027AH  21237.83607436 -.00000493  00000-0 -14201-4 0  9992","CLASSIFICATION_TYPE":"U","EPOCH":"2021-08-25T20:03:56.824704","TLE_LINE2":"2 48123  53.0562  29.5095 0001757 126.0465 234.0687 15.06395906 22979","SITE":"AFETR","OBJECT_TYPE":"PAYLOAD","MEAN_MOTION":"15.06395906","APOAPSIS":"548.443","TIME_SYSTEM":"UTC","MEAN_ELEMENT_THEORY":"SGP4","INCLINATION":"53.0562","ELEMENT_SET_NO":"999","GP_ID":"183446792","ARG_OF_PERICENTER":"126.0465","RCS_SIZE":"LARGE"},{"ARG_OF_PERICENTER":"115.6076","RCS_SIZE":"LARGE","ELEMENT_SET_NO":"999","INCLINATION":"53.0570","GP_ID":"183446043","OBJECT_TYPE":"PAYLOAD","APOAPSIS":"548.315","MEAN_MOTION":"15.06396918","TIME_SYSTEM":"UTC","MEAN_ELEMENT_THEORY":"SGP4","TLE_LINE2":"2 48124  53.0570  39.5180 0001577 115.6076 244.5076 15.06396918 22823","SITE":"AFETR","EPOCH":"2021-08-25T20:02:37.284000","CLASSIFICATION_TYPE":"U","TLE_LINE1":"1 48124U 21027AJ  21237.83515375  .00000621  00000-0  60577-4 0  9991","LAUNCH_DATE":"2021-04-07","MEAN_ANOMALY":"244.5076","FILE":"3103208","PERIOD":"95.592","OBJECT_NAME":"STARLINK-2465","CENTER_NAME":"EARTH","COUNTRY_CODE":"US","MEAN_MOTION_DOT":"0.00000621","NORAD_CAT_ID":"48124","OBJECT_ID":"2021-027AJ","REF_FRAME":"TEME","REV_AT_EPOCH":"2282","RA_OF_ASC_NODE":"39.5180","ECCENTRICITY":"0.00015770","MEAN_MOTION_DDOT":"0.0000000000000","BSTAR":"0.00006057700000","PERIAPSIS":"546.131","DECAY_DATE":null,"SEMIMAJOR_AXIS":"6925.358","EPHEMERIS_TYPE":"0"},{"NORAD_CAT_ID":"48125","COUNTRY_CODE":"US","MEAN_MOTION_DOT":"0.00000555","OBJECT_NAME":"STARLINK-2466","CENTER_NAME":"EARTH","FILE":"3103208","PERIOD":"95.592","RA_OF_ASC_NODE":"49.2571","REV_AT_EPOCH":"2270","REF_FRAME":"TEME","OBJECT_ID":"2021-027AK","BSTAR":"0.00005618800000","MEAN_MOTION_DDOT":"0.0000000000000","ECCENTRICITY":"0.00021470","EPHEMERIS_TYPE":"0","SEMIMAJOR_AXIS":"6925.346","DECAY_DATE":null,"PERIAPSIS":"545.724","GP_ID":"183445787","ELEMENT_SET_NO":"999","INCLINATION":"53.0567","RCS_SIZE":"LARGE","ARG_OF_PERICENTER":"110.4798","TLE_LINE2":"2 48125  53.0567  49.2571 0002147 110.4798 249.6422 15.06400730 22706","SITE":"AFETR","MEAN_ELEMENT_THEORY":"SGP4","TIME_SYSTEM":"UTC","APOAPSIS":"548.698","MEAN_MOTION":"15.06400730","OBJECT_TYPE":"PAYLOAD","EPOCH":"2021-08-25T21:24:51.795360","CLASSIFICATION_TYPE":"U","MEAN_ANOMALY":"249.6422","LAUNCH_DATE":"2021-04-07","TLE_LINE1":"1 48125U 21027AK  21237.89226615  .00000555  00000-0  56188-4 0  9993"},{"MEAN_MOTION_DDOT":"0.0000000000000","ECCENTRICITY":"0.00015140","BSTAR":"-0.00005872200000","PERIAPSIS":"546.189","EPHEMERIS_TYPE":"0","SEMIMAJOR_AXIS":"6925.372","DECAY_DATE":null,"OBJECT_NAME":"STARLINK-2467","CENTER_NAME":"EARTH","PERIOD":"95.593","FILE":"3103208","NORAD_CAT_ID":"48126","COUNTRY_CODE":"US","MEAN_MOTION_DOT":"-0.00001156","REF_FRAME":"TEME","REV_AT_EPOCH":"2298","OBJECT_ID":"2021-027AL","RA_OF_ASC_NODE":"29.4137","CLASSIFICATION_TYPE":"U","EPOCH":"2021-08-25T20:51:43.193952","TLE_LINE1":"1 48126U 21027AL  21237.86924993 -.00001156  00000-0 -58722-4 0  9991","LAUNCH_DATE":"2021-04-07","MEAN_ANOMALY":"237.7017","ARG_OF_PERICENTER":"122.4119","RCS_SIZE":"LARGE","GP_ID":"183446533","ELEMENT_SET_NO":"999","INCLINATION":"53.0472","MEAN_ELEMENT_THEORY":"SGP4","TIME_SYSTEM":"UTC","APOAPSIS":"548.286","MEAN_MOTION":"15.06392329","OBJECT_TYPE":"PAYLOAD","TLE_LINE2":"2 48126  53.0472  29.4137 0001514 122.4119 237.7017 15.06392329 22989","SITE":"AFETR"},{"CLASSIFICATION_TYPE":"U","EPOCH":"2021-08-25T19:02:55.248000","MEAN_ANOMALY":"257.7240","LAUNCH_DATE":"2021-04-07","TLE_LINE1":"1 48127U 21027AM  21237.79369500 -.00000938  00000-0 -44074-4 0  9993","GP_ID":"183447293","INCLINATION":"53.0565","ELEMENT_SET_NO":"999","ARG_OF_PERICENTER":"102.3983","RCS_SIZE":"LARGE","TLE_LINE2":"2 48127  53.0565  49.6996 0002092 102.3983 257.7240 15.06393132 22688","SITE":"AFETR","APOAPSIS":"548.683","MEAN_MOTION":"15.06393132","OBJECT_TYPE":"PAYLOAD","MEAN_ELEMENT_THEORY":"SGP4","TIME_SYSTEM":"UTC","BSTAR":"-0.00004407400000","MEAN_MOTION_DDOT":"0.0000000000000","ECCENTRICITY":"0.00020920","SEMIMAJOR_AXIS":"6925.370","DECAY_DATE":null,"EPHEMERIS_TYPE":"0","PERIAPSIS":"545.786","NORAD_CAT_ID":"48127","COUNTRY_CODE":"US","MEAN_MOTION_DOT":"-0.00000938","OBJECT_NAME":"STARLINK-2468","CENTER_NAME":"EARTH","FILE":"3103208","PERIOD":"95.593","RA_OF_ASC_NODE":"49.6996","OBJECT_ID":"2021-027AM","REF_FRAME":"TEME","REV_AT_EPOCH":"2268"},{"ELEMENT_SET_NO":"999","INCLINATION":"53.0475","GP_ID":"183423078","ARG_OF_PERICENTER":"9.4036","RCS_SIZE":"LARGE","TLE_LINE2":"2 48128  53.0475   5.0838 0004539   9.4036 350.7066 15.73253907 22896","SITE":"AFETR","OBJECT_TYPE":"PAYLOAD","MEAN_MOTION":"15.73253907","APOAPSIS":"352.660","TIME_SYSTEM":"UTC","MEAN_ELEMENT_THEORY":"SGP4","EPOCH":"2021-08-25T15:00:36.783936","CLASSIFICATION_TYPE":"U","LAUNCH_DATE":"2021-04-07","MEAN_ANOMALY":"350.7066","TLE_LINE1":"1 48128U 21027AN  21237.62542574  .00026771  00000-0  19401-3 0  9996","COUNTRY_CODE":"US","MEAN_MOTION_DOT":"0.00026771","NORAD_CAT_ID":"48128","FILE":"3103122","PERIOD":"91.530","CENTER_NAME":"EARTH","OBJECT_NAME":"STARLINK-2469","RA_OF_ASC_NODE":"5.0838","OBJECT_ID":"2021-027AN","REV_AT_EPOCH":"2289","REF_FRAME":"TEME","BSTAR":"0.00019401000000","ECCENTRICITY":"0.00045390","MEAN_MOTION_DDOT":"0.0000000000000","DECAY_DATE":null,"SEMIMAJOR_AXIS":"6727.741","EPHEMERIS_TYPE":"0","PERIAPSIS":"346.553"},{"OBJECT_ID":"2021-027AP","REV_AT_EPOCH":"2269","REF_FRAME":"TEME","RA_OF_ASC_NODE":"49.4341","PERIOD":"95.592","FILE":"3103208","OBJECT_NAME":"STARLINK-2471","CENTER_NAME":"EARTH","MEAN_MOTION_DOT":"-0.00001089","COUNTRY_CODE":"US","NORAD_CAT_ID":"48129","PERIAPSIS":"545.937","DECAY_DATE":null,"SEMIMAJOR_AXIS":"6925.361","EPHEMERIS_TYPE":"0","ECCENTRICITY":"0.00018610","MEAN_MOTION_DDOT":"0.0000000000000","BSTAR":"-0.00005419500000","OBJECT_TYPE":"PAYLOAD","APOAPSIS":"548.515","MEAN_MOTION":"15.06395936","TIME_SYSTEM":"UTC","MEAN_ELEMENT_THEORY":"SGP4","SITE":"AFETR","TLE_LINE2":"2 48129  53.0567  49.4341 0001861 112.3072 247.8114 15.06395936 22692","RCS_SIZE":"LARGE","ARG_OF_PERICENTER":"112.3072","INCLINATION":"53.0567","ELEMENT_SET_NO":"999","GP_ID":"183446288","TLE_LINE1":"1 48129U 21027AP  21237.85266676 -.00001089  00000-0 -54195-4 0  9995","LAUNCH_DATE":"2021-04-07","MEAN_ANOMALY":"247.8114","CLASSIFICATION_TYPE":"U","EPOCH":"2021-08-25T20:27:50.408064"},{"APOAPSIS":"548.686","MEAN_MOTION":"15.06402310","OBJECT_TYPE":"PAYLOAD","MEAN_ELEMENT_THEORY":"SGP4","TIME_SYSTEM":"UTC","TLE_LINE2":"2 48130  53.0591  54.1884 0002136  93.6740 266.4494 15.06402310 22632","SITE":"AFETR","ARG_OF_PERICENTER":"93.6740","RCS_SIZE":"LARGE","GP_ID":"183447034","INCLINATION":"53.0591","ELEMENT_SET_NO":"999","TLE_LINE1":"1 48130U 21027AQ  21237.90838763  .00000426  00000-0  47486-4 0  9992","LAUNCH_DATE":"2021-04-07","MEAN_ANOMALY":"266.4494","EPOCH":"2021-08-25T21:48:04.691232","CLASSIFICATION_TYPE":"U","OBJECT_ID":"2021-027AQ","REF_FRAME":"TEME","REV_AT_EPOCH":"2263","RA_OF_ASC_NODE":"54.1884","CENTER_NAME":"EARTH","OBJECT_NAME":"STARLINK-2472","FILE":"3103208","PERIOD":"95.592","NORAD_CAT_ID":"48130","MEAN_MOTION_DOT":"0.00000426","COUNTRY_CODE":"US","PERIAPSIS":"545.727","SEMIMAJOR_AXIS":"6925.341","DECAY_DATE":null,"EPHEMERIS_TYPE":"0","MEAN_MOTION_DDOT":"0.0000000000000","ECCENTRICITY":"0.00021360","BSTAR":"0.00004748600000"},{"OBJECT_ID":"2021-027AR","REF_FRAME":"TEME","REV_AT_EPOCH":"2296","RA_OF_ASC_NODE":"29.7121","OBJECT_NAME":"STARLINK-2473","CENTER_NAME":"EARTH","FILE":"3103208","PERIOD":"95.592","NORAD_CAT_ID":"48131","MEAN_MOTION_DOT":"0.00000747","COUNTRY_CODE":"US","PERIAPSIS":"546.120","SEMIMAJOR_AXIS":"6925.362","DECAY_DATE":null,"EPHEMERIS_TYPE":"0","MEAN_MOTION_DDOT":"0.0000000000000","ECCENTRICITY":"0.00015990","BSTAR":"0.00006906200000","APOAPSIS":"548.335","MEAN_MOTION":"15.06395458","OBJECT_TYPE":"PAYLOAD","MEAN_ELEMENT_THEORY":"SGP4","TIME_SYSTEM":"UTC","TLE_LINE2":"2 48131  53.0565  29.7121 0001599 117.2807 242.8345 15.06395458 22968","SITE":"AFETR","ARG_OF_PERICENTER":"117.2807","RCS_SIZE":"LARGE","GP_ID":"183446793","INCLINATION":"53.0565","ELEMENT_SET_NO":"999","TLE_LINE1":"1 48131U 21027AR  21237.79552984  .00000747  00000-0  69062-4 0  9998","MEAN_ANOMALY":"242.8345","LAUNCH_DATE":"2021-04-07","CLASSIFICATION_TYPE":"U","EPOCH":"2021-08-25T19:05:33.778176"}];
